STARLINK-5590           
1 55371U 23013AS  25267.04345757  .00000490  00000+0  51347-4 0  9993
2 55371  43.0037 138.6390 0000842 273.3912  86.6834 15.02539748147417
STARLINK-5568           
1 55372U 23013AT  25267.98081137  .00000065  00000+0  19893-4 0  9994
2 55372  43.0041 133.6373 0001117 269.7180  90.3534 15.02534814146632
STARLINK-5581           
1 55373U 23013AU  25267.93541938  .00000017  00000+0  16361-4 0  9994
2 55373  43.0032 134.1520 0001476 275.4963  84.5711 15.02535522146622
STARLINK-5578           
1 55374U 23013AV  25268.04395766  .00001559  00000+0  13045-3 0  9991
2 55374  43.0042 133.2511 0001152 265.0948  94.9763 15.02535517146641
STARLINK-5588           
1 55375U 23013AW  25266.97032419 -.00000111  00000+0  68828-5 0  9990
2 55375  43.0035 138.9577 0001230 269.2371  90.8330 15.02538392146482
STARLINK-5586           
1 55376U 23013AX  25267.27673521 -.00003614  00000+0 -25277-3 0  9991
2 55376  43.0026 111.8078 0000894 252.5161 107.5584 15.02507274146826
STARLINK-5567           
1 55377U 23013AY  25267.95417419 -.00000168  00000+0  26401-5 0  9991
2 55377  43.0043 133.4384 0001145 261.1433  98.9280 15.02533185146639
STARLINK-5572           
1 55378U 23013AZ  25267.37253468 -.00000206  00000+0 -16827-6 0  9996
2 55378  42.9997 136.8149 0000233  80.7128 279.3741 15.02530601146542
STARLINK-5569           
1 55379U 23013BA  25267.36252380 -.00004041  00000+0 -28405-3 0  9991
2 55379  43.0049 136.7414 0002348 277.8280  82.2296 15.02554878146542
STARLINK-5571           
1 55380U 23013BB  25267.97133760 -.00000536  00000+0 -24629-4 0  9990
2 55380  43.0033 107.5669 0001152 271.9607  88.1103 15.02532287146930
STARLINK-5575           
1 55381U 23013BC  25268.02397335 -.00002394  00000+0 -16214-3 0  9992
2 55381  43.0025 133.0992 0001192 267.6789  92.3917 15.02553995146649
STARLINK-5576           
1 55382U 23013BD  25267.96416236 -.00000167  00000+0  27171-5 0  9998
2 55382  43.0034 133.5151 0001238 268.4749  91.5952 15.02533779146635
STARLINK-5531           
1 55383U 23013BE  25268.23391726  .00000327  00000+0  39271-4 0  9996
2 55383  43.0058 106.0957 0001046 264.3571  95.7152 15.02536922146974
STARLINK-5537           
1 55384U 23013BF  25267.36364331 -.00000521  00000+0 -23479-4 0  9993
2 55384  43.0023 136.7511 0001337 266.5321  93.5368 15.02533526146548
STARLINK-5556           
1 55385U 23013BG  25268.01399276  .00001430  00000+0  12095-3 0  9992
2 55385  43.0035 133.0264 0001281 272.4126  87.6570 15.02524766146640
STARLINK-5555           
1 55386U 23013BH  25268.01732309  .00000986  00000+0  88035-4 0  9994
2 55386  43.0030 133.0514 0001387 273.8247  86.2437 15.02529591146648
