[{"OBJECT_NAME":"STARLINK-5590","OBJECT_ID":"2023-013AS","EPOCH":"2025-09-24T01:02:34.734048","MEAN_MOTION":15.02539748,"ECCENTRICITY":8.425e-5,"INCLINATION":43.0037,"RA_OF_ASC_NODE":138.639,"ARG_OF_PERICENTER":273.3912,"MEAN_ANOMALY":86.6834,"EPHEMERIS_TYPE":0,"CLASSIFICATION_TYPE":"U","NORAD_CAT_ID":55371,"ELEMENT_SET_NO":999,"REV_AT_EPOCH":14741,"BSTAR":5.1347321e-5,"MEAN_MOTION_DOT":4.9e-6,"MEAN_MOTION_DDOT":0},{"OBJECT_NAME":"STARLINK-5568","OBJECT_ID":"2023-013AT","EPOCH":"2025-09-24T23:32:22.102368","MEAN_MOTION":15.02534814,"ECCENTRICITY":0.00011172,"INCLINATION":43.0041,"RA_OF_ASC_NODE":133.6373,"ARG_OF_PERICENTER":269.718,"MEAN_ANOMALY":90.3534,"EPHEMERIS_TYPE":0,"CLASSIFICATION_TYPE":"U","NORAD_CAT_ID":55372,"ELEMENT_SET_NO":999,"REV_AT_EPOCH":14663,"BSTAR":1.989255e-5,"MEAN_MOTION_DOT":6.5e-7,"MEAN_MOTION_DDOT":0},{"OBJECT_NAME":"STARLINK-5581","OBJECT_ID":"2023-013AU","EPOCH":"2025-09-24T22:27:00.234432","MEAN_MOTION":15.02535522,"ECCENTRICITY":0.00014768,"INCLINATION":43.0032,"RA_OF_ASC_NODE":134.152,"ARG_OF_PERICENTER":275.4963,"MEAN_ANOMALY":84.5711,"EPHEMERIS_TYPE":0,"CLASSIFICATION_TYPE":"U","NORAD_CAT_ID":55373,"ELEMENT_SET_NO":999,"REV_AT_EPOCH":14662,"BSTAR":1.6360545e-5,"MEAN_MOTION_DOT":1.7e-7,"MEAN_MOTION_DDOT":0},{"OBJECT_NAME":"STARLINK-5578","OBJECT_ID":"2023-013AV","EPOCH":"2025-09-25T01:03:17.941824","MEAN_MOTION":15.02535517,"ECCENTRICITY":0.00011529,"INCLINATION":43.0042,"RA_OF_ASC_NODE":133.2511,"ARG_OF_PERICENTER":265.0948,"MEAN_ANOMALY":94.9763,"EPHEMERIS_TYPE":0,"CLASSIFICATION_TYPE":"U","NORAD_CAT_ID":55374,"ELEMENT_SET_NO":999,"REV_AT_EPOCH":14664,"BSTAR":0.00013045157,"MEAN_MOTION_DOT":1.559e-5,"MEAN_MOTION_DDOT":0},{"OBJECT_NAME":"STARLINK-5588","OBJECT_ID":"2023-013AW","EPOCH":"2025-09-23T23:17:16.010016","MEAN_MOTION":15.02538392,"ECCENTRICITY":0.00012309,"INCLINATION":43.0035,"RA_OF_ASC_NODE":138.9577,"ARG_OF_PERICENTER":269.2371,"MEAN_ANOMALY":90.833,"EPHEMERIS_TYPE":0,"CLASSIFICATION_TYPE":"U","NORAD_CAT_ID":55375,"ELEMENT_SET_NO":999,"REV_AT_EPOCH":14648,"BSTAR":6.882799e-6,"MEAN_MOTION_DOT":-1.11e-6,"MEAN_MOTION_DDOT":0},{"OBJECT_NAME":"STARLINK-5586","OBJECT_ID":"2023-013AX","EPOCH":"2025-09-24T06:38:29.922144","MEAN_MOTION":15.02507274,"ECCENTRICITY":8.943e-5,"INCLINATION":43.0026,"RA_OF_ASC_NODE":111.8078,"ARG_OF_PERICENTER":252.5161,"MEAN_ANOMALY":107.5584,"EPHEMERIS_TYPE":0,"CLASSIFICATION_TYPE":"U","NORAD_CAT_ID":55376,"ELEMENT_SET_NO":999,"REV_AT_EPOCH":14682,"BSTAR":-0.00025276939,"MEAN_MOTION_DOT":-3.614e-5,"MEAN_MOTION_DDOT":0},{"OBJECT_NAME":"STARLINK-5567","OBJECT_ID":"2023-013AY","EPOCH":"2025-09-24T22:54:00.650016","MEAN_MOTION":15.02533185,"ECCENTRICITY":0.00011451,"INCLINATION":43.0043,"RA_OF_ASC_NODE":133.4384,"ARG_OF_PERICENTER":261.1433,"MEAN_ANOMALY":98.928,"EPHEMERIS_TYPE":0,"CLASSIFICATION_TYPE":"U","NORAD_CAT_ID":55377,"ELEMENT_SET_NO":999,"REV_AT_EPOCH":14663,"BSTAR":2.640094e-6,"MEAN_MOTION_DOT":-1.68e-6,"MEAN_MOTION_DDOT":0},{"OBJECT_NAME":"STARLINK-5572","OBJECT_ID":"2023-013AZ","EPOCH":"2025-09-24T08:56:26.996352","MEAN_MOTION":15.02530601,"ECCENTRICITY":2.334e-5,"INCLINATION":42.9997,"RA_OF_ASC_NODE":136.8149,"ARG_OF_PERICENTER":80.7128,"MEAN_ANOMALY":279.3741,"EPHEMERIS_TYPE":0,"CLASSIFICATION_TYPE":"U","NORAD_CAT_ID":55378,"ELEMENT_SET_NO":999,"REV_AT_EPOCH":14654,"BSTAR":-1.68267e-7,"MEAN_MOTION_DOT":-2.06e-6,"MEAN_MOTION_DDOT":0},{"OBJECT_NAME":"STARLINK-5569","OBJECT_ID":"2023-013BA","EPOCH":"2025-09-24T08:42:02.056320","MEAN_MOTION":15.02554878,"ECCENTRICITY":0.00023482,"INCLINATION":43.0049,"RA_OF_ASC_NODE":136.7414,"ARG_OF_PERICENTER":277.828,"MEAN_ANOMALY":82.2296,"EPHEMERIS_TYPE":0,"CLASSIFICATION_TYPE":"U","NORAD_CAT_ID":55379,"ELEMENT_SET_NO":999,"REV_AT_EPOCH":14654,"BSTAR":-0.00028405084,"MEAN_MOTION_DOT":-4.041e-5,"MEAN_MOTION_DDOT":0},{"OBJECT_NAME":"STARLINK-5571","OBJECT_ID":"2023-013BB","EPOCH":"2025-09-24T23:18:43.568640","MEAN_MOTION":15.02532287,"ECCENTRICITY":0.00011525,"INCLINATION":43.0033,"RA_OF_ASC_NODE":107.5669,"ARG_OF_PERICENTER":271.9607,"MEAN_ANOMALY":88.1103,"EPHEMERIS_TYPE":0,"CLASSIFICATION_TYPE":"U","NORAD_CAT_ID":55380,"ELEMENT_SET_NO":999,"REV_AT_EPOCH":14693,"BSTAR":-2.4629453e-5,"MEAN_MOTION_DOT":-5.36e-6,"MEAN_MOTION_DDOT":0},{"OBJECT_NAME":"STARLINK-5575","OBJECT_ID":"2023-013BC","EPOCH":"2025-09-25T00:34:31.297440","MEAN_MOTION":15.02553995,"ECCENTRICITY":0.0001192,"INCLINATION":43.0025,"RA_OF_ASC_NODE":133.0992,"ARG_OF_PERICENTER":267.6789,"MEAN_ANOMALY":92.3917,"EPHEMERIS_TYPE":0,"CLASSIFICATION_TYPE":"U","NORAD_CAT_ID":55381,"ELEMENT_SET_NO":999,"REV_AT_EPOCH":14664,"BSTAR":-0.00016214273,"MEAN_MOTION_DOT":-2.394e-5,"MEAN_MOTION_DDOT":0},{"OBJECT_NAME":"STARLINK-5576","OBJECT_ID":"2023-013BD","EPOCH":"2025-09-24T23:08:23.627904","MEAN_MOTION":15.02533779,"ECCENTRICITY":0.00012388,"INCLINATION":43.0034,"RA_OF_ASC_NODE":133.5151,"ARG_OF_PERICENTER":268.4749,"MEAN_ANOMALY":91.5952,"EPHEMERIS_TYPE":0,"CLASSIFICATION_TYPE":"U","NORAD_CAT_ID":55382,"ELEMENT_SET_NO":999,"REV_AT_EPOCH":14663,"BSTAR":2.717073e-6,"MEAN_MOTION_DOT":-1.67e-6,"MEAN_MOTION_DDOT":0},{"OBJECT_NAME":"STARLINK-5531","OBJECT_ID":"2023-013BE","EPOCH":"2025-09-25T05:36:50.451264","MEAN_MOTION":15.02536922,"ECCENTRICITY":0.00010468,"INCLINATION":43.0058,"RA_OF_ASC_NODE":106.0957,"ARG_OF_PERICENTER":264.3571,"MEAN_ANOMALY":95.7152,"EPHEMERIS_TYPE":0,"CLASSIFICATION_TYPE":"U","NORAD_CAT_ID":55383,"ELEMENT_SET_NO":999,"REV_AT_EPOCH":14697,"BSTAR":3.927142e-5,"MEAN_MOTION_DOT":3.27e-6,"MEAN_MOTION_DDOT":0},{"OBJECT_NAME":"STARLINK-5537","OBJECT_ID":"2023-013BF","EPOCH":"2025-09-24T08:43:38.781984","MEAN_MOTION":15.02533526,"ECCENTRICITY":0.0001337,"INCLINATION":43.0023,"RA_OF_ASC_NODE":136.7511,"ARG_OF_PERICENTER":266.5321,"MEAN_ANOMALY":93.5368,"EPHEMERIS_TYPE":0,"CLASSIFICATION_TYPE":"U","NORAD_CAT_ID":55384,"ELEMENT_SET_NO":999,"REV_AT_EPOCH":14654,"BSTAR":-2.3478602e-5,"MEAN_MOTION_DOT":-5.21e-6,"MEAN_MOTION_DDOT":0},{"OBJECT_NAME":"STARLINK-5556","OBJECT_ID":"2023-013BG","EPOCH":"2025-09-25T00:20:08.974464","MEAN_MOTION":15.02524766,"ECCENTRICITY":0.0001281,"INCLINATION":43.0035,"RA_OF_ASC_NODE":133.0264,"ARG_OF_PERICENTER":272.4126,"MEAN_ANOMALY":87.657,"EPHEMERIS_TYPE":0,"CLASSIFICATION_TYPE":"U","NORAD_CAT_ID":55385,"ELEMENT_SET_NO":999,"REV_AT_EPOCH":14664,"BSTAR":0.00012094678,"MEAN_MOTION_DOT":1.43e-5,"MEAN_MOTION_DDOT":0},{"OBJECT_NAME":"STARLINK-5555","OBJECT_ID":"2023-013BH","EPOCH":"2025-09-25T00:24:56.714976","MEAN_MOTION":15.02529591,"ECCENTRICITY":0.00013871,"INCLINATION":43.003,"RA_OF_ASC_NODE":133.0514,"ARG_OF_PERICENTER":273.8247,"MEAN_ANOMALY":86.2437,"EPHEMERIS_TYPE":0,"CLASSIFICATION_TYPE":"U","NORAD_CAT_ID":55386,"ELEMENT_SET_NO":999,"REV_AT_EPOCH":14664,"BSTAR":8.8035284e-5,"MEAN_MOTION_DOT":9.86e-6,"MEAN_MOTION_DDOT":0}]
